NORAD_CAT_ID,OBJECT_NAME,OBJECT_TYPE,EPOCH,MEAN_MOTION,ECCENTRICITY,INCLINATION,RA_OF_ASC_NODE,ARG_OF_PERICENTER,MEAN_ANOMALY,BSTAR,MEAN_MOTION_DOT,MEAN_MOTION_DDOT,TLE_LINE0,TLE_LINE1,TLE_LINE2,SEMIMAJOR_AXIS,PERIOD,APOGEE,PERIGEE,DECAYED
53439.0,STARLINK-4519,PAYLOAD,2024-03-21 05:27:35,15.08840988,0.0001492,53.2169,89.1908,93.9221,266.1942,8.3524e-05,1.042e-05,0.0,0 STARLINK-4519,1 53439U 22097BD  24081.22749914  .00001042  00000-0  83524-4 0  9990,2 53439  53.2169  89.1908 0001492  93.9221 266.1942 15.08840988 89849,6917.877,95.437,540.775,538.71,0.0
53439.0,STARLINK-4519,PAYLOAD,2024-03-21 11:49:08,15.08848312,0.0001517,53.216,88.0014,90.5972,269.5193,0.00021753,3.176e-05,0.0,0 STARLINK-4519,1 53439U 22097BD  24081.49245655  .00003176  00000-0  21753-3 0  9997,2 53439  53.2160  88.0014 0001517  90.5972 269.5193 15.08848312 90374,6917.855,95.437,540.769,538.671,0.0
53439.0,STARLINK-4519,PAYLOAD,2024-03-21 21:21:27,15.08844802,0.0001423,53.2161,86.2171,98.2959,261.8195,0.00010334,1.357e-05,0.0,0 STARLINK-4519,1 53439U 22097BD  24081.88989698  .00001357  00000-0  10334-3 0  9994,2 53439  53.2161  86.2171 0001423  98.2959 261.8195 15.08844802 90439,6917.866,95.437,540.715,538.746,0.0
53439.0,STARLINK-4519,PAYLOAD,2024-03-22 11:39:55,15.08842242,0.0001407,53.2169,83.5404,92.9485,267.1668,0.0001153,1.548e-05,0.0,0 STARLINK-4519,1 53439U 22097BD  24082.48605610  .00001548  00000-0  11530-3 0  9991,2 53439  53.2169  83.5404 0001407  92.9485 267.1668 15.08842242 90039,6917.874,95.437,540.712,538.765,0.0
53439.0,STARLINK-4519,PAYLOAD,2024-03-22 22:47:37,15.08834201,0.0001404,53.2169,81.4589,91.8089,268.3064,-2.4934e-05,-6.85e-06,0.0,0 STARLINK-4519,1 53439U 22097BD  24082.94974498 -.00000685  00000-0 -24934-4 0  9991,2 53439  53.2169  81.4589 0001404  91.8089 268.3064 15.08834201 90595,6917.898,95.438,540.734,538.792,0.0
53439.0,STARLINK-4519,PAYLOAD,2024-03-23 05:09:11,15.08827033,0.0001409,53.2169,80.2696,92.5459,267.5695,-2.2817e-05,-6.51e-06,0.0,0 STARLINK-4519,1 53439U 22097BD  24083.21471303 -.00000651  00000-0 -22817-4 0  9990,2 53439  53.2169  80.2696 0001409  92.5459 267.5695 15.08827033 90142,6917.92,95.438,540.76,538.81,0.0
53439.0,STARLINK-4519,PAYLOAD,2024-03-23 22:38:24,15.08843365,0.0001346,53.2171,76.9987,92.3169,267.7978,1.4144e-05,-6.3e-07,0.0,0 STARLINK-4519,1 53439U 22097BD  24083.94334286 -.00000063  00000-0  14144-4 0  9998,2 53439  53.2171  76.9987 0001346  92.3169 267.7978 15.08843365 90744,6917.87,95.437,540.666,538.804,0.0
53439.0,STARLINK-4519,PAYLOAD,2024-03-24 04:59:57,15.08839429,0.0001482,53.217,75.8094,100.2283,259.8876,0.00022311,3.265e-05,0.0,0 STARLINK-4519,1 53439U 22097BD  24084.20830164  .00003265  00000-0  22311-3 0  9994,2 53439  53.2170  75.8094 0001482 100.2283 259.8876 15.08839429 90292,6917.882,95.438,540.772,538.722,0.0
53439.0,STARLINK-4519,PAYLOAD,2024-03-24 06:35:20,15.08846001,0.0001314,53.2172,75.5119,89.9249,270.1894,0.00025164,3.72e-05,0.0,0 STARLINK-4519,1 53439U 22097BD  24084.27453836  .00003720  00000-0  25164-3 0  9993,2 53439  53.2172  75.5119 0001314  89.9249 270.1894 15.08846001 90793,6917.862,95.437,540.636,538.818,0.0
53439.0,STARLINK-4519,PAYLOAD,2024-03-25 04:50:44,15.08833156,0.000133,53.2164,71.3495,80.9713,279.143,0.00013355,1.838e-05,0.0,0 STARLINK-4519,1 53439U 22097BD  24085.20190951  .00001838  00000-0  13355-3 0  9990,2 53439  53.2164  71.3495 0001330  80.9713 279.1430 15.08833156 90444,6917.901,95.438,540.686,538.846,0.0
53439.0,STARLINK-4519,PAYLOAD,2024-03-25 15:58:26,15.08840089,0.0001123,53.2159,69.2668,86.5362,273.5759,6.6583e-05,7.72e-06,0.0,0 STARLINK-4519,1 53439U 22097BD  24085.66558640  .00000772  00000-0  66583-4 0  9991,2 53439  53.2159  69.2668 0001123  86.5362 273.5759 15.08840089 91006,6917.88,95.438,540.522,538.968,0.0
53439.0,STARLINK-4519,PAYLOAD,2024-03-26 04:41:33,15.08830111,0.0001839,53.2195,66.8871,100.2031,259.9169,-0.00010363,-1.937e-05,0.0,0 STARLINK-4519,1 53439U 22097BD  24086.19552239 -.00001937  00000-0 -10363-3 0  9998,2 53439  53.2195  66.8871 0001839 100.2031 259.9169 15.08830111 90597,6917.911,95.438,541.048,538.503,0.0
53439.0,STARLINK-4519,PAYLOAD,2024-03-26 07:52:19,15.08834188,0.0001422,53.218,66.2936,90.4668,269.6487,-7.5039e-05,-1.482e-05,0.0,0 STARLINK-4519,1 53439U 22097BD  24086.32799972 -.00001482  00000-0 -75039-4 0  9997,2 53439  53.2180  66.2936 0001422  90.4668 269.6487 15.08834188 91108,6917.898,95.438,540.747,538.779,0.0
53439.0,STARLINK-4519,PAYLOAD,2024-03-26 15:49:14,15.08841587,0.0001302,53.2179,64.8071,90.0827,270.0314,0.0001068,1.412e-05,0.0,0 STARLINK-4519,1 53439U 22097BD  24086.65919166  .00001412  00000-0  10680-3 0  9993,2 53439  53.2179  64.8071 0001302  90.0827 270.0314 15.08841587 90666,6917.876,95.437,540.641,538.84,0.0
53439.0,STARLINK-4519,PAYLOAD,2024-03-27 07:43:05,15.08850721,0.0001323,53.2168,61.8325,91.9886,268.1258,0.0003706,5.617e-05,0.0,0 STARLINK-4519,1 53439U 22097BD  24087.32158816  .00005617  00000-0  37060-3 0  9997,2 53439  53.2168  61.8325 0001323  91.9886 268.1258 15.08850721 91252,6917.848,95.437,540.628,538.797,0.0
53439.0,STARLINK-4519,PAYLOAD,2024-03-27 15:40:00,15.08857833,0.0001353,53.2171,60.3462,89.4727,270.642,0.00041368,6.305e-05,0.0,0 STARLINK-4519,1 53439U 22097BD  24087.65278337  .00006305  00000-0  41368-3 0  9995,2 53439  53.2171  60.3462 0001353  89.4727 270.6420 15.08857833 90812,6917.826,95.436,540.627,538.755,0.0
53439.0,STARLINK-4519,PAYLOAD,2024-03-27 22:01:33,15.08855262,0.000241,53.2162,59.1564,91.4935,268.6334,0.00049147,7.546e-05,0.0,0 STARLINK-4519,1 53439U 22097BD  24087.91774947  .00007546  00000-0  49147-3 0  9993,2 53439  53.2162  59.1564 0002410  91.4935 268.6334 15.08855262 91344,6917.834,95.437,541.366,538.032,0.0
53439.0,STARLINK-4519,PAYLOAD,2024-03-28 04:23:05,15.08848741,0.0001414,53.2171,57.9658,108.1813,251.9334,0.00016473,2.335e-05,0.0,0 STARLINK-4519,1 53439U 22097BD  24088.18270773  .00002335  00000-0  16473-3 0  9998,2 53439  53.2171  57.9658 0001414 108.1813 251.9334 15.08848741 90896,6917.854,95.437,540.697,538.74,0.0
53439.0,STARLINK-4519,PAYLOAD,2024-03-28 07:33:52,15.08852537,0.0001452,53.2171,57.3707,108.804,251.311,0.00021583,3.15e-05,0.0,0 STARLINK-4519,1 53439U 22097BD  24088.31518542  .00003150  00000-0  21583-3 0  9996,2 53439  53.2171  57.3707 0001452 108.8040 251.3110 15.08852537 91408,6917.842,95.437,540.712,538.703,0.0
53439.0,STARLINK-4519,PAYLOAD,2024-03-29 04:13:52,15.08842569,0.0001524,53.2185,53.5052,113.0634,247.0519,1.7465e-05,-1e-07,0.0,0 STARLINK-4519,1 53439U 22097BD  24089.17630677 -.00000010  00000-0  17465-4 0  9993,2 53439  53.2185  53.5052 0001524 113.0634 247.0519 15.08842569 91040,6917.873,95.437,540.792,538.683,0.0
53439.0,STARLINK-4519,PAYLOAD,2024-03-29 07:24:39,15.08844749,0.0001517,53.2184,52.9103,113.8108,246.3043,2.8586e-05,1.67e-06,0.0,0 STARLINK-4519,1 53439U 22097BD  24089.30878608  .00000167  00000-0  28586-4 0  9994,2 53439  53.2184  52.9103 0001517 113.8108 246.3043 15.08844749 91557,6917.866,95.437,540.78,538.681,0.0
53439.0,STARLINK-4519,PAYLOAD,2024-03-30 07:15:26,15.08827437,0.0001358,53.2182,48.4505,98.4682,261.6464,-0.00033613,-5.632e-05,0.0,0 STARLINK-4519,1 53439U 22097BD  24090.30238496 -.00005632  00000-0 -33613-3 0  9991,2 53439  53.2182  48.4505 0001358  98.4682 261.6464 15.08827437 91214,6917.919,95.438,540.723,538.844,0.0
53439.0,STARLINK-4519,PAYLOAD,2024-03-30 13:36:58,15.08828654,0.0001359,53.2187,47.262,98.9183,261.1963,-0.00018136,-3.172e-05,0.0,0 STARLINK-4519,1 53439U 22097BD  24090.56734765 -.00003172  00000-0 -18136-3 0  9999,2 53439  53.2187  47.2620 0001359  98.9183 261.1963 15.08828654 91745,6917.915,95.438,540.72,538.84,0.0
53439.0,STARLINK-4519,PAYLOAD,2024-03-30 21:33:54,15.08829849,0.000119,53.2181,45.7761,101.2597,258.8529,-0.0001238,-2.257e-05,0.0,0 STARLINK-4519,1 53439U 22097BD  24090.89854952 -.00002257  00000-0 -12380-3 0  9994,2 53439  53.2181  45.7761 0001190 101.2597 258.8529 15.08829849 91791,6917.911,95.438,540.6,538.953,0.0
53439.0,STARLINK-4519,PAYLOAD,2024-03-31 03:55:26,15.08838566,0.0001319,53.2184,44.5879,101.9629,258.1511,-1.0316e-05,-4.52e-06,0.0,0 STARLINK-4519,1 53439U 22097BD  24091.16350448 -.00000452  00000-0 -10316-4 0  9999,2 53439  53.2184  44.5879 0001319 101.9629 258.1511 15.08838566 91348,6917.885,95.438,540.662,538.837,0.0
53439.0,STARLINK-4519,PAYLOAD,2024-03-31 07:06:12,15.08843656,0.0001345,53.2183,43.9925,101.159,258.9553,0.00012191,1.653e-05,0.0,0 STARLINK-4519,1 53439U 22097BD  24091.29598332  .00001653  00000-0  12191-3 0  9993,2 53439  53.2183  43.9925 0001345 101.1590 258.9553 15.08843656 91856,6917.869,95.437,540.665,538.804,0.0
53439.0,STARLINK-4519,PAYLOAD,2024-04-01 03:46:14,15.088304,0.0001297,53.2186,40.1277,92.6895,267.4246,-8.5326e-05,-1.645e-05,0.0,0 STARLINK-4519,1 53439U 22097BD  24092.15711317 -.00001645  00000-0 -85326-4 0  9993,2 53439  53.2186  40.1277 0001297  92.6895 267.4246 15.08830400 91493,6917.91,95.438,540.672,538.877,0.0
53439.0,STARLINK-4519,PAYLOAD,2024-04-01 13:18:33,15.08833298,0.0001365,53.2189,38.3433,87.8823,272.2325,0.00033266,5.009e-05,0.0,0 STARLINK-4519,1 53439U 22097BD  24092.55455730  .00005009  00000-0  33266-3 0  9992,2 53439  53.2189  38.3433 0001365  87.8823 272.2325 15.08833298 92044,6917.901,95.438,540.71,538.822,0.0
53439.0,STARLINK-4519,PAYLOAD,2024-04-02 05:12:25,15.08842986,0.000138,53.2183,35.3693,81.6861,278.4287,0.00032718,4.923e-05,0.0,0 STARLINK-4519,1 53439U 22097BD  24093.21695662  .00004923  00000-0  32718-3 0  9991,2 53439  53.2183  35.3693 0001380  81.6861 278.4287 15.08842986 91659,6917.871,95.437,540.691,538.782,0.0
53439.0,STARLINK-4519,PAYLOAD,2024-04-02 13:09:20,15.08849656,0.000141,53.2185,33.8828,87.8021,272.3132,0.00038582,5.859e-05,0.0,0 STARLINK-4519,1 53439U 22097BD  24093.54815300  .00005859  00000-0  38582-3 0  9994,2 53439  53.2185  33.8828 0001410  87.8021 272.3132 15.08849656 92197,6917.851,95.437,540.691,538.74,0.0
